CCSDS_OEM_VERS = 1.0
CREATION_DATE  = 2017-05-11T10:56:21
ORIGINATOR     = GMAT USER

META_START
OBJECT_NAME          = MOPSSat_alt_35785_km_RAAN_0_016
OBJECT_ID            = SatId
CENTER_NAME          = Earth
REF_FRAME            = EME2000
TIME_SYSTEM          = UTC
START_TIME           = 2017-01-01T00:00:00.000
USEABLE_START_TIME   = 2017-01-01T00:00:00.000
USEABLE_STOP_TIME    = 2017-01-02T00:00:00.000
STOP_TIME            = 2017-01-02T00:00:00.000
INTERPOLATION        = Lagrange
INTERPOLATION_DEGREE = 7 
META_STOP


                                                                                   

2017-01-01T20:10:00.000   2.317536214320753e+04  -3.522364543999278e+04  -3.105482681324477e-01   2.568570383858668e+00   1.690082635860863e+00  -1.325852416082165e-04
2017-01-01T20:10:10.000   2.320104168254987e+04  -3.520673525018201e+04  -3.118742578070446e-01   2.567337357159424e+00   1.691955242550462e+00  -1.326126874773237e-04
2017-01-01T20:10:20.000   2.322670888482346e+04  -3.518980633878477e+04  -3.132005216112523e-01   2.566102965133876e+00   1.693826949572704e+00  -1.326400672588913e-04
2017-01-01T20:10:30.000   2.325236373658037e+04  -3.517285871466914e+04  -3.145270588944438e-01   2.564867208428575e+00   1.695697755946807e+00  -1.326673809123192e-04
2017-01-01T20:10:40.000   2.327800622444435e+04  -3.515589238666988e+04  -3.158538690089565e-01   2.563630087687653e+00   1.697567660697219e+00  -1.326946283971046e-04
2017-01-01T20:10:50.000   2.330363633451124e+04  -3.513890736398514e+04  -3.171809512790734e-01   2.562391603581728e+00   1.699436662809889e+00  -1.327218096721886e-04
2017-01-01T20:11:00.000   2.332925405294868e+04  -3.512190365577996e+04  -3.185083050320400e-01   2.561151756779012e+00   1.701304761276005e+00  -1.327489246966102e-04
2017-01-01T20:11:10.000   2.335485936584122e+04  -3.510488127128845e+04  -3.198359295900625e-01   2.559910547952749e+00   1.703171955080692e+00  -1.327759734293353e-04
2017-01-01T20:11:20.000   2.338045225960060e+04  -3.508784021954404e+04  -3.211638242914744e-01   2.558667977761556e+00   1.705038243232936e+00  -1.328029558297125e-04
2017-01-01T20:11:30.000   2.340603272062689e+04  -3.507078050960176e+04  -3.224919884732751e-01   2.557424046865621e+00   1.706903624740874e+00  -1.328298718570926e-04
2017-01-01T20:11:40.000   2.343160073538675e+04  -3.505370215048701e+04  -3.238204214751544e-01   2.556178755922972e+00   1.708768098617495e+00  -1.328567214709194e-04
2017-01-01T20:11:50.000   2.345715629038242e+04  -3.503660515121427e+04  -3.251491226379493e-01   2.554932105590845e+00   1.710631663878386e+00  -1.328835046306768e-04
2017-01-01T20:12:00.000   2.348269937213805e+04  -3.501948952079788e+04  -3.264780913028842e-01   2.553684096526463e+00   1.712494319540729e+00  -1.329102212958939e-04
2017-01-01T20:12:10.000   2.350822996716920e+04  -3.500235526827230e+04  -3.278073268099825e-01   2.552434729388516e+00   1.714356064621081e+00  -1.329368714261067e-04
2017-01-01T20:12:20.000   2.353374806196783e+04  -3.498520240270073e+04  -3.291368284973368e-01   2.551184004837793e+00   1.716216898134279e+00  -1.329634549808559e-04
2017-01-01T20:12:30.000   2.355925364297309e+04  -3.496803093319663e+04  -3.304665956995262e-01   2.549931923538744e+00   1.718076819091306e+00  -1.329899719196434e-04
2017-01-01T20:12:40.000   2.358474669664850e+04  -3.495084086887087e+04  -3.317966277516639e-01   2.548678486155636e+00   1.719935826504925e+00  -1.330164222020179e-04
2017-01-01T20:12:50.000   2.361022720914727e+04  -3.493363221906028e+04  -3.331269239718457e-01   2.547423693369204e+00   1.721793919365271e+00  -1.330428057872166e-04
2017-01-01T20:13:00.000   2.363569516671812e+04  -3.491640499305112e+04  -3.344574836824140e-01   2.546167545856507e+00   1.723651096669440e+00  -1.330691226345974e-04
2017-01-01T20:13:10.000   2.366115055555427e+04  -3.489915920018176e+04  -3.357883062020528e-01   2.544910044298399e+00   1.725507357410483e+00  -1.330953727034771e-04
2017-01-01T20:13:20.000   2.368659336237910e+04  -3.488189484944617e+04  -3.371193908763979e-01   2.543651189350619e+00   1.727362700620112e+00  -1.331215559537524e-04
2017-01-01T20:13:30.000   2.371202357386183e+04  -3.486461194988922e+04  -3.384507370475082e-01   2.542390981672622e+00   1.729217125326090e+00  -1.331476723452801e-04
2017-01-01T20:13:40.000   2.373744117675021e+04  -3.484731051051742e+04  -3.397823440607775e-01   2.541129421921064e+00   1.731070630561902e+00  -1.331737218380210e-04
2017-01-01T20:13:50.000   2.376284615753952e+04  -3.482999054052041e+04  -3.411142112477256e-01   2.539866510765958e+00   1.732923215342629e+00  -1.331997043916782e-04
2017-01-01T20:14:00.000   2.378823850271884e+04  -3.481265204910735e+04  -3.424463379387654e-01   2.538602248878736e+00   1.734774878682895e+00  -1.332256199659719e-04
2017-01-01T20:14:10.000   2.381361819877031e+04  -3.479529504550571e+04  -3.437787234632177e-01   2.537336636932169e+00   1.736625619596820e+00  -1.332514685206307e-04
2017-01-01T20:14:20.000   2.383898523192680e+04  -3.477791953913075e+04  -3.451113671364653e-01   2.536069675612720e+00   1.738475437080347e+00  -1.332772500151667e-04
2017-01-01T20:14:30.000   2.386433958849902e+04  -3.476052553935836e+04  -3.464442682772425e-01   2.534801365603982e+00   1.740324330135091e+00  -1.333029644091871e-04
2017-01-01T20:14:40.000   2.388968125474643e+04  -3.474311305561411e+04  -3.477774262008279e-01   2.533531707593173e+00   1.742172297758939e+00  -1.333286116622697e-04
2017-01-01T20:14:50.000   2.391501021744926e+04  -3.472568209698066e+04  -3.491108402491299e-01   2.532260702242503e+00   1.744019338987742e+00  -1.333541917345289e-04
2017-01-01T20:15:00.000   2.394032646333636e+04  -3.470823267259012e+04  -3.504445097606035e-01   2.530988350217792e+00   1.745865452853615e+00  -1.333797045860488e-04
2017-01-01T20:15:10.000   2.396562997921486e+04  -3.469076479153581e+04  -3.517784340770493e-01   2.529714652182030e+00   1.747710638394372e+00  -1.334051501770117e-04
2017-01-01T20:15:20.000   2.399092075164065e+04  -3.467327846309586e+04  -3.531126125263718e-01   2.528439608811683e+00   1.749554894629513e+00  -1.334305284673675e-04
2017-01-01T20:15:30.000   2.401619876716351e+04  -3.465577369656782e+04  -3.544470444353701e-01   2.527163220784638e+00   1.751398220578089e+00  -1.334558394170806e-04
2017-01-01T20:15:40.000   2.404146401232643e+04  -3.463825050126777e+04  -3.557817291297511e-01   2.525885488780127e+00   1.753240615258658e+00  -1.334810829861278e-04
2017-01-01T20:15:50.000   2.406671647342436e+04  -3.462070888670111e+04  -3.571166659212647e-01   2.524606413491191e+00   1.755082077671687e+00  -1.335062591342644e-04
2017-01-01T20:16:00.000   2.409195613682981e+04  -3.460314886233334e+04  -3.584518541250204e-01   2.523325995607962e+00   1.756922606823303e+00  -1.335313678213417e-04
2017-01-01T20:16:10.000   2.411718298886198e+04  -3.458557043768185e+04  -3.597872930525401e-01   2.522044235824353e+00   1.758762201715742e+00  -1.335564090071793e-04
2017-01-01T20:16:20.000   2.414239701636559e+04  -3.456797362191248e+04  -3.611229820423993e-01   2.520761134808646e+00   1.760600861389563e+00  -1.335813826521311e-04
2017-01-01T20:16:30.000   2.416759820613043e+04  -3.455035842424380e+04  -3.624589204295112e-01   2.519476693232969e+00   1.762438584881322e+00  -1.336062887165184e-04
2017-01-01T20:16:40.000   2.419278654504137e+04  -3.453272485384288e+04  -3.637951075530530e-01   2.518190911765695e+00   1.764275371234505e+00  -1.336311271607757e-04
2017-01-01T20:16:50.000   2.421796201967473e+04  -3.451507292010482e+04  -3.651315427351604e-01   2.516903791091822e+00   1.766111219470099e+00  -1.336558979450602e-04
2017-01-01T20:17:00.000   2.424312461663154e+04  -3.449740263242240e+04  -3.664682252985046e-01   2.515615331896180e+00   1.767946128610894e+00  -1.336806010295723e-04
2017-01-01T20:17:10.000   2.426827432246318e+04  -3.447971400023739e+04  -3.678051545623718e-01   2.514325534867176e+00   1.769780097676057e+00  -1.337052363744864e-04
2017-01-01T20:17:20.000   2.429341112369242e+04  -3.446200703302785e+04  -3.691423298437121e-01   2.513034400695860e+00   1.771613125682671e+00  -1.337298039399595e-04
2017-01-01T20:17:30.000   2.431853500683763e+04  -3.444428174028932e+04  -3.704797504584874e-01   2.511741930074555e+00   1.773445211647499e+00  -1.337543036861677e-04
2017-01-01T20:17:40.000   2.434364595842210e+04  -3.442653813152863e+04  -3.718174157221513e-01   2.510448123696410e+00   1.775276354587658e+00  -1.337787355733100e-04
2017-01-01T20:17:50.000   2.436874396506411e+04  -3.440877621620099e+04  -3.731553249544250e-01   2.509152982250813e+00   1.777106553527197e+00  -1.338030995617129e-04
2017-01-01T20:18:00.000   2.439382901341665e+04  -3.439099600375158e+04  -3.744934774761193e-01   2.507856506426418e+00   1.778935807492694e+00  -1.338273956117548e-04
2017-01-01T20:18:10.000   2.441890109016750e+04  -3.437319750361569e+04  -3.758318726091315e-01   2.506558696911156e+00   1.780764115513263e+00  -1.338516236838714e-04
2017-01-01T20:18:20.000   2.444396018209849e+04  -3.435538072517555e+04  -3.771705096796473e-01   2.505259554389097e+00   1.782591476624878e+00  -1.338757837385964e-04
2017-01-01T20:18:30.000   2.446900627599627e+04  -3.433754567782452e+04  -3.785093880133464e-01   2.503959079545115e+00   1.784417889863864e+00  -1.338998757364912e-04
2017-01-01T20:18:40.000   2.449403935864334e+04  -3.431969237097370e+04  -3.798485069349197e-01   2.502657273065381e+00   1.786243354266244e+00  -1.339238996381322e-04
2017-01-01T20:18:50.000   2.451905941679234e+04  -3.430182081406849e+04  -3.811878657667486e-01   2.501354135638571e+00   1.788067868865862e+00  -1.339478554040970e-04
2017-01-01T20:19:00.000   2.454406643714705e+04  -3.428393101660431e+04  -3.825274638278193e-01   2.500049667957001e+00   1.789891432692999e+00  -1.339717429949359e-04
